[{"OBJECT_NAME":"SDA_1671","OBJECT_ID":"2025-230H","EPOCH":"2026-03-09T17:44:20.295456","MEAN_MOTION":13.85388686,"ECCENTRICITY":0.00046746,"INCLINATION":81.3008,"RA_OF_ASC_NODE":303.8297,"ARG_OF_PERICENTER":111.686,"MEAN_ANOMALY":248.4795,"EPHEMERIS_TYPE":0,"CLASSIFICATION_TYPE":"U","NORAD_CAT_ID":65981,"ELEMENT_SET_NO":999,"REV_AT_EPOCH":2005,"BSTAR":0.00023629654,"MEAN_MOTION_DOT":2.81e-6,"MEAN_MOTION_DDOT":0},{"OBJECT_NAME":"FENGYUN 1C DEB","OBJECT_ID":"1999-025EEU","EPOCH":"2026-03-09T22:33:06.640416","MEAN_MOTION":14.00791835,"ECCENTRICITY":0.00811928,"INCLINATION":99.0753,"RA_OF_ASC_NODE":130.8559,"ARG_OF_PERICENTER":108.5241,"MEAN_ANOMALY":252.4767,"EPHEMERIS_TYPE":0,"CLASSIFICATION_TYPE":"U","NORAD_CAT_ID":37060,"ELEMENT_SET_NO":999,"REV_AT_EPOCH":63927,"BSTAR":0.00049783474,"MEAN_MOTION_DOT":7.21e-6,"MEAN_MOTION_DDOT":0}]
